CTC1_L_00514001-01
1 45950U 22132WZ  26037.47807870  .00000000  00000+0  00000-0 0  9991
2 45950  97.6000   0.0000 0000000   0.0000   0.0000 15.05490494    19
CTC1_L_00514001-02
1 45951U 25081DI  26037.47807870  .00000000  00000+0  00000-0 0  9998
2 45951  97.6000   0.0000 0000000   0.0000 120.0000 15.05490494    13
CTC1_L_00514001-03
1 45952U 22794MA  26037.47807870  .00000000  00000+0  00000-0 0  9997
2 45952  97.6000   0.0000 0000000   0.0000 240.0000 15.05490494    17
CTC1_L_00514002-01
1 45953U 25565MU  26037.47807870  .00000000  00000+0  00000-0 0  9997
2 45953  97.6000  12.0000 0000000   0.0000  16.0000 15.05490494    12
CTC1_L_00514002-02
1 45954U 22742BM  26037.47807870  .00000000  00000+0  00000-0 0  9992
2 45954  97.6000  12.0000 0000000   0.0000 136.0000 15.05490494    16
CTC1_L_00514002-03
1 45955U 25778WI  26037.47807870  .00000000  00000+0  00000-0 0  9995
2 45955  97.6000  12.0000 0000000   0.0000 256.0000 15.05490494    10
CTC1_L_00514003-01
1 45956U 25846YQ  26037.47807870  .00000000  00000+0  00000-0 0  9992
2 45956  97.6000  24.0000 0000000   0.0000  32.0000 15.05490494    16
CTC1_L_00514003-02
1 45957U 25322ML  26037.47807870  .00000000  00000+0  00000-0 0  9992
2 45957  97.6000  24.0000 0000000   0.0000 152.0000 15.05490494    10
CTC1_L_00514003-03
1 45958U 25738WH  26037.47807870  .00000000  00000+0  00000-0 0  9994
2 45958  97.6000  24.0000 0000000   0.0000 272.0000 15.05490494    14
CTC1_L_00514004-01
1 45959U 24219AU  26037.47807870  .00000000  00000+0  00000-0 0  9998
2 45959  97.6000  36.0000 0000000   0.0000  48.0000 15.05490494    19
CTC1_L_00514004-02
1 45960U 25414QR  26037.47807870  .00000000  00000+0  00000-0 0  9998
2 45960  97.6000  36.0000 0000000   0.0000 168.0000 15.05490494    14
CTC1_L_00514004-03
1 45961U 23469R   26037.47807870  .00000000  00000+0  00000-0 0  9997
2 45961  97.6000  36.0000 0000000   0.0000 288.0000 15.05490494    18
CTC1_L_00514005-01
1 45962U 23175QV  26037.47807870  .00000000  00000+0  00000-0 0  9992
2 45962  97.6000  48.0000 0000000   0.0000  64.0000 15.05490494    14
CTC1_L_00514005-02
1 45963U 22597E   26037.47807870  .00000000  00000+0  00000-0 0  9990
2 45963  97.6000  48.0000 0000000   0.0000 184.0000 15.05490494    18
CTC1_L_00514005-03
1 45964U 23370NE  26037.47807870  .00000000  00000+0  00000-0 0  9991
2 45964  97.6000  48.0000 0000000   0.0000 304.0000 15.05490494    13
CTC1_L_00514006-01
1 45965U 23959PH  26037.47807870  .00000000  00000+0  00000-0 0  9995
2 45965  97.6000  60.0000 0000000   0.0000  80.0000 15.05490494    19
CTC1_L_00514006-02
1 45966U 25370TR  26037.47807870  .00000000  00000+0  00000-0 0  9995
2 45966  97.6000  60.0000 0000000   0.0000 200.0000 15.05490494    14
CTC1_L_00514006-03
1 45967U 25912DZ  26037.47807870  .00000000  00000+0  00000-0 0  9998
2 45967  97.6000  60.0000 0000000   0.0000 320.0000 15.05490494    18
CTC1_L_00514007-01
1 45968U 26436YO  26037.47807870  .00000000  00000+0  00000-0 0  9991
2 45968  97.6000  72.0000 0000000   0.0000  96.0000 15.05490494    12
CTC1_L_00514007-02
1 45969U 26950VB  26037.47807870  .00000000  00000+0  00000-0 0  9993
2 45969  97.6000  72.0000 0000000   0.0000 216.0000 15.05490494    17
CTC1_L_00514007-03
1 45970U 23372VM  26037.47807870  .00000000  00000+0  00000-0 0  9990
2 45970  97.6000  72.0000 0000000   0.0000 336.0000 15.05490494    12
CTC1_L_00514008-01
1 45971U 23861JG  26037.47807870  .00000000  00000+0  00000-0 0  9994
2 45971  97.6000  84.0000 0000000   0.0000 112.0000 15.05490494    18
CTC1_L_00514008-02
1 45972U 23954LW  26037.47807870  .00000000  00000+0  00000-0 0  9998
2 45972  97.6000  84.0000 0000000   0.0000 232.0000 15.05490494    12
CTC1_L_00514008-03
1 45973U 22750FB  26037.47807870  .00000000  00000+0  00000-0 0  9992
2 45973  97.6000  84.0000 0000000   0.0000 352.0000 15.05490494    16
CTC1_L_00514009-01
1 45974U 25867WX  26037.47807870  .00000000  00000+0  00000-0 0  9995
2 45974  97.6000  96.0000 0000000   0.0000 128.0000 15.05490494    11
CTC1_L_00514009-02
1 45975U 25342AP  26037.47807870  .00000000  00000+0  00000-0 0  9994
2 45975  97.6000  96.0000 0000000   0.0000 248.0000 15.05490494    15
CTC1_L_00514009-03
1 45976U 23986SB  26037.47807870  .00000000  00000+0  00000-0 0  9997
2 45976  97.6000  96.0000 0000000   0.0000   8.0000 15.05490494    10
CTC1_L_00514010-01
1 45977U 22061OT  26037.47807870  .00000000  00000+0  00000-0 0  9991
2 45977  97.6000 108.0000 0000000   0.0000 144.0000 15.05490494    16
CTC1_L_00514010-02
1 45978U 26411BM  26037.47807870  .00000000  00000+0  00000-0 0  9995
2 45978  97.6000 108.0000 0000000   0.0000 264.0000 15.05490494    10
CTC1_L_00514010-03
1 45979U 23156AY  26037.47807870  .00000000  00000+0  00000-0 0  9999
2 45979  97.6000 108.0000 0000000   0.0000  24.0000 15.05490494    15
CTC1_L_00514011-01
1 45980U 26102OH  26037.47807870  .00000000  00000+0  00000-0 0  9995
2 45980  97.6000 120.0000 0000000   0.0000 160.0000 15.05490494    12
CTC1_L_00514011-02
1 45981U 23322MO  26037.47807870  .00000000  00000+0  00000-0 0  9997
2 45981  97.6000 120.0000 0000000   0.0000 280.0000 15.05490494    16
CTC1_L_00514011-03
1 45982U 24595KR  26037.47807870  .00000000  00000+0  00000-0 0  9991
2 45982  97.6000 120.0000 0000000   0.0000  40.0000 15.05490494    11
CTC1_L_00514012-01
1 45983U 23172KV  26037.47807870  .00000000  00000+0  00000-0 0  9992
2 45983  97.6000 132.0000 0000000   0.0000 176.0000 15.05490494    15
CTC1_L_00514012-02
1 45984U 25104HN  26037.47807870  .00000000  00000+0  00000-0 0  9990
2 45984  97.6000 132.0000 0000000   0.0000 296.0000 15.05490494    19
CTC1_L_00514012-03
1 45985U 23316BC  26037.47807870  .00000000  00000+0  00000-0 0  9994
2 45985  97.6000 132.0000 0000000   0.0000  56.0000 15.05490494    14
CTC1_L_00514013-01
1 45986U 22622KP  26037.47807870  .00000000  00000+0  00000-0 0  9994
2 45986  97.6000 144.0000 0000000   0.0000 192.0000 15.05490494    19
CTC1_L_00514013-02
1 45987U 22533QM  26037.47807870  .00000000  00000+0  00000-0 0  9996
2 45987  97.6000 144.0000 0000000   0.0000 312.0000 15.05490494    14
CTC1_L_00514013-03
1 45988U 23628FS  26037.47807870  .00000000  00000+0  00000-0 0  9993
2 45988  97.6000 144.0000 0000000   0.0000  72.0000 15.05490494    18
CTC1_L_00514014-01
1 45989U 23081ZQ  26037.47807870  .00000000  00000+0  00000-0 0  9997
2 45989  97.6000 156.0000 0000000   0.0000 208.0000 15.05490494    13
CTC1_L_00514014-02
1 45990U 24870RJ  26037.47807870  .00000000  00000+0  00000-0 0  9996
2 45990  97.6000 156.0000 0000000   0.0000 328.0000 15.05490494    18
CTC1_L_00514014-03
1 45991U 26276PN  26037.47807870  .00000000  00000+0  00000-0 0  9999
2 45991  97.6000 156.0000 0000000   0.0000  88.0000 15.05490494    12
CTC1_L_00514015-01
1 45992U 26951XO  26037.47807870  .00000000  00000+0  00000-0 0  9990
2 45992  97.6000 168.0000 0000000   0.0000 224.0000 15.05490494    18
CTC1_L_00514015-02
1 45993U 23262KC  26037.47807870  .00000000  00000+0  00000-0 0  9993
2 45993  97.6000 168.0000 0000000   0.0000 344.0000 15.05490494    12
CTC1_L_00514015-03
1 45994U 22451TK  26037.47807870  .00000000  00000+0  00000-0 0  9993
2 45994  97.6000 168.0000 0000000   0.0000 104.0000 15.05490494    17
CTC1_L_00514016-01
1 45995U 23304WG  26037.47807870  .00000000  00000+0  00000-0 0  9992
2 45995  97.6000 180.0000 0000000   0.0000 240.0000 15.05490494    13
CTC1_L_00514016-02
1 45996U 26536LU  26037.47807870  .00000000  00000+0  00000-0 0  9993
2 45996  97.6000 180.0000 0000000   0.0000   0.0000 15.05490494    18
CTC1_L_00514016-03
1 45997U 24526JL  26037.47807870  .00000000  00000+0  00000-0 0  9991
2 45997  97.6000 180.0000 0000000   0.0000 120.0000 15.05490494    12
CTC1_L_00514017-01
1 45998U 25233QS  26037.47807870  .00000000  00000+0  00000-0 0  9998
2 45998  97.6000 192.0000 0000000   0.0000 256.0000 15.05490494    16
CTC1_L_00514017-02
1 45999U 22836OG  26037.47807870  .00000000  00000+0  00000-0 0  9995
2 45999  97.6000 192.0000 0000000   0.0000  16.0000 15.05490494    11
CTC1_L_00514017-03
1 46000U 26254ER  26037.47807870  .00000000  00000+0  00000-0 0  9997
2 46000  97.6000 192.0000 0000000   0.0000 136.0000 15.05490494    18
CTC1_L_00514018-01
1 46001U 25656FQ  26037.47807870  .00000000  00000+0  00000-0 0  9993
2 46001  97.6000 204.0000 0000000   0.0000 272.0000 15.05490494    14
CTC1_L_00514018-02
1 46002U 25181QZ  26037.47807870  .00000000  00000+0  00000-0 0  9997
2 46002  97.6000 204.0000 0000000   0.0000  32.0000 15.05490494    19
CTC1_L_00514018-03
1 46003U 26515QH  26037.47807870  .00000000  00000+0  00000-0 0  9990
2 46003  97.6000 204.0000 0000000   0.0000 152.0000 15.05490494    13
CTC1_L_00514019-01
1 46004U 23041KB  26037.47807870  .00000000  00000+0  00000-0 0  9992
2 46004  97.6000 216.0000 0000000   0.0000 288.0000 15.05490494    17
CTC1_L_00514019-02
1 46005U 25821XH  26037.47807870  .00000000  00000+0  00000-0 0  9991
2 46005  97.6000 216.0000 0000000   0.0000  48.0000 15.05490494    12
CTC1_L_00514019-03
1 46006U 23347QF  26037.47807870  .00000000  00000+0  00000-0 0  9993
2 46006  97.6000 216.0000 0000000   0.0000 168.0000 15.05490494    16
CTC1_L_00514020-01
1 46007U 26717SY  26037.47807870  .00000000  00000+0  00000-0 0  9998
2 46007  97.6000 228.0000 0000000   0.0000 304.0000 15.05490494    12
CTC1_L_00514020-02
1 46008U 22818YA  26037.47807870  .00000000  00000+0  00000-0 0  9997
2 46008  97.6000 228.0000 0000000   0.0000  64.0000 15.05490494    16
CTC1_L_00514020-03
1 46009U 23830XQ  26037.47807870  .00000000  00000+0  00000-0 0  9993
2 46009  97.6000 228.0000 0000000   0.0000 184.0000 15.05490494    10
CTC1_L_00514021-01
1 46010U 23133AB  26037.47807870  .00000000  00000+0  00000-0 0  9991
2 46010  97.6000 240.0000 0000000   0.0000 320.0000 15.05490494    18
CTC1_L_00514021-02
1 46011U 23314XN  26037.47807870  .00000000  00000+0  00000-0 0  9993
2 46011  97.6000 240.0000 0000000   0.0000  80.0000 15.05490494    12
